XRISM                   
1 57800U 23137A   24287.84014884  .00010132  00000+0  71814-3 0  9996
2 57800  31.0041 336.2245 0008565 302.2682  57.7124 15.03530078 60467
